XRISM                   
1 57800U 23137A   26090.49708295  .00007486  00000+0  42232-3 0  9997
2 57800  31.0015 142.5846 0007915 258.4497 101.5253 15.11758652141096
ACS3                    
1 59588U 24077B   26090.81106335  .00030572  00000+0  23924-1 0  9996
2 59588  97.1960  26.9510 0073089  26.4274 334.0589 13.90657484 97278
HTV-X1                  
1 66174U 25241A   26090.88752611  .00001358  00000+0  54325-4 0  9992
2 66174  51.6377 326.0819 0007216 258.6594 101.3577 15.32487751 24349
SZ-21 MODULE            
1 66515U 25246C   26090.64555905  .00045309  00000+0  36184-3 0  9993
2 66515  41.4739  68.0304 0002346 217.6333 142.4346 15.70295966 21528
